From:	Horizons Ephemeris System <horizons@ssd.jpl.nasa.gov>
Sent:	Friday, December 4, 2020 11:37 AM
Subject:	[Horizons] MAJOR BODY #C(usr={180.,-60.,.600^G}@301)_T(301) (1/1)

 Automated mail xmit by MAIL_REQUEST, PID= 12311 Fri Dec  4 09:36:43 2020
++++++++++++++++++++++++++++++++ (part 1 of 1)  +++++++++++++++++++++++++++++++
*******************************************************************************
 Revised: July 31, 2013             Moon / (Earth)                          301
 
 GEOPHYSICAL DATA (updated 2018-Aug-15):
  Vol. mean radius, km  = 1737.53+-0.03    Mass, x10^22 kg       =    7.349
  Radius (gravity), km  = 1738.0           Surface emissivity    =    0.92
  Radius (IAU), km      = 1737.4           GM, km^3/s^2          = 4902.800066
  Density, g/cm^3       =    3.3437        GM 1-sigma, km^3/s^2  =  +-0.0001  
  V(1,0)                =   +0.21          Surface accel., m/s^2 =    1.62
  Earth/Moon mass ratio = 81.3005690769    Farside crust. thick. = ~80 - 90 km
  Mean crustal density  = 2.97+-.07 g/cm^3 Nearside crust. thick.= 58+-8 km 
  Heat flow, Apollo 15  = 3.1+-.6 mW/m^2   Mean angular diameter = 31'05.2"
  Heat flow, Apollo 17  = 2.2+-.5 mW/m^2   Sid. rot. rate, rad/s = 0.0000026617
  Geometric Albedo      = 0.12             Mean solar day        = 29.5306 d
  Obliquity to orbit    = 6.67 deg         Orbit period          = 27.321582 d
  Semi-major axis, a    = 384400 km        Eccentricity          = 0.05490
  Mean motion, rad/s    = 2.6616995x10^-6  Inclination           = 5.145 deg
  Apsidal period        = 3231.50 d        Nodal period          = 6798.38 d
                                 Perihelion  Aphelion    Mean
  Solar Constant (W/m^2)         1414+-7     1323+-7     1368+-7
  Maximum Planetary IR (W/m^2)   1314        1226        1268
  Minimum Planetary IR (W/m^2)      5.2         5.2         5.2
********************************************************************************
 
 
*******************************************************************************
Ephemeris / MAIL_REQUEST Fri Dec  4 09:36:42 2020 Pasadena, USA  / Horizons
*******************************************************************************
Target body name: Moon (301)                      {source: DE431mx}
Center body name: Moon (301)                      {source: DE431mx}
Center-site name: (user defined site below)
*******************************************************************************
Start time      : A.D. 2020-Jan-01 00:00:00.0000 TDB
Stop  time      : A.D. 2039-Jan-01 00:00:00.0000 TDB
Step-size       : 10000 steps
*******************************************************************************
Center geodetic : 180.000000,-60.000000,0.6000000 {E-lon(deg),Lat(deg),Alt(km)}
Center cylindric: 180.000000,869.000000,-1505.152 {E-lon(deg),Dxy(km),Dz(km)}
Center pole/equ : IAU_MOON                        {East-longitude positive}
Center radii    : 1737.4 x 1737.4 x 1737.4 km     {Equator, meridian, pole}    
Output units    : KM-S
Output type     : GEOMETRIC cartesian states
Output format   : 3 (position, velocity, LT, range, range-rate)
Reference frame : Ecliptic of J2000.0
*******************************************************************************
JDTDB
   X     Y     Z
   VX    VY    VZ
   LT    RG    RR
*******************************************************************************
$$SOE
2462247.324000001 = A.D. 2029-Apr-20 19:46:33.6001 TDB 
   4.205666617009764E+02 -7.745422869783426E+02  1.497949241045254E+03
   2.076229675640121E-03  1.012258259588585E-03 -5.951880996434510E-05
   5.797343974543880E-03  1.738000000000000E+03 -9.581901823577303E-20
2462248.018000002 = A.D. 2029-Apr-21 12:25:55.2001 TDB 
   5.396986369372175E+02 -7.041847215072896E+02  1.494487624332771E+03
   1.888938463329657E-03  1.329511754738616E-03 -5.569510768159029E-05
   5.797343974543881E-03  1.738000000000000E+03  2.395475455894326E-20
2462248.712000001 = A.D. 2029-Apr-22 05:05:16.8001 TDB 
   6.461334189668203E+02 -6.157791236169380E+02  1.491298654130621E+03
   1.653617970809942E-03  1.612965271749515E-03 -5.044428322493620E-05
   5.797343974543881E-03  1.738000000000000E+03 -1.357436091673451E-19
2462249.406000001 = A.D. 2029-Apr-22 21:44:38.4001 TDB 
   7.371646500318543E+02 -5.115731524472856E+02  1.488464036662814E+03
   1.376249064312820E-03  1.855407985051573E-03 -4.390112643140088E-05
   5.797343974543881E-03  1.738000000000000E+03  2.315626274031182E-19
2462250.100000001 = A.D. 2029-Apr-23 14:24:00.0001 TDB 
   8.104775248597314E+02 -3.942164408399647E+02  1.486056385023365E+03
   1.063883245916173E-03  2.050671592193742E-03 -3.623348617609135E-05
   5.797343974543881E-03  1.738000000000000E+03  1.437285273536595E-19
2462250.794000001 = A.D. 2029-Apr-24 07:03:21.6001 TDB 
   8.642077363417209E+02 -2.666932219777395E+02  1.484137363520725E+03
   7.244632892925790E-04  2.193787705017777E-03 -2.763791878304959E-05
   5.797343974543881E-03  1.737999999999999E+03  1.317511500741879E-19
2462251.488000001 = A.D. 2029-Apr-24 23:42:43.2001 TDB 
   8.969889572258807E+02 -1.322464168004677E+02  1.482756114760031E+03
   3.666210423868216E-04  2.281114666717245E-03 -1.833463052531171E-05
   5.797343974543882E-03  1.738000000000000E+03 -1.437285273536595E-19
2462252.182000001 = A.D. 2029-Apr-25 16:22:04.8001 TDB 
   9.079876411116184E+02  5.704882084930773E+00  1.481948007829207E+03
  -5.424309169808775E-07  2.310430516663124E-03 -8.561847667516611E-06
   5.797343974543882E-03  1.738000000000000E+03 -3.293778751854698E-20
2462252.876000002 = A.D. 2029-Apr-26 09:01:26.4001 TDB 
   8.969242507755074E+02  1.436524235472267E+02  1.481733737747711E+03
  -3.676887341270516E-04  2.280989699632249E-03  1.430246125251112E-06
   5.797343974543881E-03  1.738000000000000E+03  1.819064174319754E-19
2462253.570000001 = A.D. 2029-Apr-27 01:40:48.0001 TDB 
   8.640803700281814E+02  2.780880854891622E+02  1.482118797816468E+03
  -7.254800952352002E-04  2.193542055741164E-03  1.138586086537198E-05
   5.797343974543882E-03  1.738000000000000E+03 -4.391705002472930E-20
2462254.264000001 = A.D. 2029-Apr-27 18:20:09.6001 TDB 
   8.102915176746635E+02  4.055931556264443E+02  1.483093337755070E+03
  -1.064817288513485E-03  2.050313605967116E-03  2.105009205626333E-05
   5.797343974543882E-03  1.738000000000000E+03 -1.796606591920744E-19
2462254.958000001 = A.D. 2029-Apr-28 10:59:31.2001 TDB 
   7.369258491680971E+02  5.229253248898467E+02  1.484632411547291E+03
  -1.377071415604482E-03  1.854949638750288E-03  3.017540198045263E-05
   5.797343974543881E-03  1.738000000000000E+03  2.036154137510177E-19
2462255.652000001 = A.D. 2029-Apr-29 03:38:52.8001 TDB 
   6.458492934802365E+02  6.271011726002084E+02  1.486696609747437E+03
  -1.654303605097718E-03  1.612421578643593E-03  3.852793601959138E-05
   5.797343974543882E-03  1.738000000000000E+03 -1.636908228194456E-19
2462256.346000001 = A.D. 2029-Apr-29 20:18:14.4001 TDB 
   5.393780201282442E+02  7.154720395790704E+02  1.489233061674062E+03
  -1.889467009550292E-03  1.328900052209484E-03  4.589351775536736E-05
   5.797343974543881E-03  1.738000000000000E+03  1.756682000989172E-19
2462257.040000001 = A.D. 2029-Apr-30 12:57:36.0001 TDB 
   4.202194550380964E+02  7.857913566548337E+02  1.492176783566223E+03
  -2.076585945006006E-03  1.011597434327990E-03  5.208316782366352E-05
   5.797343974543882E-03  1.738000000000000E+03 -8.783410004945861E-20
2462257.734000002 = A.D. 2029-May-01 05:36:57.6001 TDB 
   2.914033557301023E+02  8.362717167017726E+02  1.495452339633030E+03
  -2.210907616589613E-03  6.685839374467884E-04  5.693799748676307E-05
   5.797343974543881E-03  1.738000000000000E+03  2.395475455894326E-20
2462258.428000001 = A.D. 2029-May-01 22:16:19.2001 TDB 
   1.562047086170239E+02  8.656302426586560E+02  1.498975774320781E+03
  -2.289022588634827E-03  3.085819768271680E-04  6.033333996707131E-05
   5.797343974543882E-03  1.738000000000000E+03 -1.596983637262884E-20
2462259.122000001 = A.D. 2029-May-02 14:55:40.8001 TDB 
   1.806041763298228E+01  8.731211047745581E+02  1.502656766434762E+03
  -2.308950969292893E-03 -5.925591039544831E-05  6.218200112997099E-05
   5.797343974543882E-03  1.738000000000000E+03  0.000000000000000E+00
2462259.816000002 = A.D. 2029-May-03 07:35:02.4001 TDB 
  -1.195180911152108E+02  8.585543696692984E+02  1.506400949355094E+03
  -2.270192165641308E-03 -4.255799087890551E-04  6.243653542067581E-05
   5.797343974543882E-03  1.738000000000000E+03 -4.790950911788652E-20
2462260.510000001 = A.D. 2029-May-04 00:14:24.0001 TDB 
  -2.530341233630075E+02  8.223007130637170E+02  1.510112336784524E+03
  -2.173737002015234E-03 -7.810805904824900E-04  6.109048150931536E-05
   5.797343974543880E-03  1.737999999999999E+03  6.387934549051536E-20
2462261.204000001 = A.D. 2029-May-04 16:53:45.6001 TDB 
  -3.790945604032012E+02  7.652818880879524E+02  1.513695790453697E+03
  -2.022041956146500E-03 -1.116725359793415E-03  5.817852298434418E-05
   5.797343974543883E-03  1.738000000000000E+03 -2.475324637757470E-19
2462261.898000001 = A.D. 2029-May-05 09:33:07.2001 TDB 
  -4.944960377406970E+02  6.889472026775278E+02  1.517059465077608E+03
  -1.818966229149116E-03 -1.423987684704796E-03  5.377557096752981E-05
   5.797343974543881E-03  1.738000000000000E+03 -1.836531182852316E-19
2462262.592000002 = A.D. 2029-May-06 02:12:28.8001 TDB 
  -5.963062750968899E+02  5.952366135234876E+02  1.520117166603010E+03
  -1.569673301493967E-03 -1.695063325571702E-03  4.799479651380661E-05
   5.797343974543882E-03  1.738000000000000E+03  7.984918186314419E-20
2462263.286000001 = A.D. 2029-May-06 18:51:50.4001 TDB 
  -6.819385001511386E+02  4.865313815281154E+02  1.522790562355821E+03
  -1.280499514728623E-03 -1.923068117022035E-03  4.098467036238560E-05
   5.797343974543881E-03  1.738000000000000E+03  1.956304955647032E-19
